MEAN_MOTION;ECCENTRICITY;INCLINATION;RA_OF_ASC_NODE;ARG_OF_PERICENTER;MEAN_ANOMALY;BSTAR;MEAN_MOTION_DOT;MEAN_MOTION_DDOT;TYPE
0.99693564;0.0003467;13.1637;328.5099;292.9173;257.4054;0;-2.0E-6;0;Intelsat
0.99693567;0.0003589;13.1619;328.4964;292.3846;340.8644;0;-2.18E-6;0;Intelsat
0.99693531;0.0003565;13.1608;328.488;292.2993;254.5566;0;-2.28E-6;0;Intelsat
0.99693465;0.000355;13.1593;328.4768;292.2415;261.5507;0;-2.42E-6;0;Intelsat
0.99693016;0.0003514;13.1549;328.4441;292.2333;256.8838;0;-2.73E-6;0;Intelsat
0.99692805;0.0003447;13.1535;328.4332;292.2004;257.4882;0;-2.8E-6;0;Intelsat
0.99692596;0.0003445;13.1519;328.422;292.4239;264.8936;0;-2.85E-6;0;Intelsat
0.99692201;0.0003387;13.1499;328.4068;292.6865;52.7155;0;-2.9E-6;0;Intelsat
0.99692033;0.0003374;13.149;328.4001;292.8239;274.5188;0;-2.92E-6;0;Intelsat
0.99691922;0.0003361;13.1484;328.3958;292.9316;53.0306;0;-2.93E-6;0;Intelsat
0.99691619;0.0003317;13.1468;328.3849;292.7773;53.7533;0;-2.94E-6;0;Intelsat
0.99691295;0.0003281;13.1453;328.3741;292.8869;54.1989;0;-2.95E-6;0;Intelsat
0.99691295;0.0003281;13.1453;328.3741;292.8869;54.1989;0;-2.95E-6;0;Intelsat
0.99690977;0.000324;13.1438;328.3631;292.9638;54.6546;0;-2.95E-6;0;Intelsat
0.99690779;0.0003226;13.1429;328.3569;293.171;260.4192;0;-2.94E-6;0;Intelsat
0.99690424;0.0003183;13.1413;328.346;293.2636;260.8998;0;-2.93E-6;0;Intelsat
0.99690093;0.0003143;13.1399;328.3359;293.281;235.7246;0;-2.91E-6;0;Intelsat
0.99689707;0.0003095;13.1382;328.3243;293.313;261.9472;0;-2.88E-6;0;Intelsat
0.99689551;0.0003075;13.1376;328.3196;293.1329;56.6883;0;-2.87E-6;0;Intelsat
0.99689169;0.0003034;13.1358;328.309;292.9999;57.2941;0;-2.83E-6;0;Intelsat
0.99688788;0.0002992;13.1343;328.2983;292.8125;58.077;0;-2.78E-6;0;Intelsat
0.99688423;0.0002944;13.1327;328.2876;292.442;59.0269;0;-2.73E-6;0;Intelsat
0.99688235;0.0002915;13.1319;328.2817;292.313;256.9425;0;-2.69E-6;0;Intelsat
0.99687881;0.0002871;13.1304;328.2714;291.8079;242.8816;0;-2.64E-6;0;Intelsat
0.99687326;0.0002789;13.1281;328.2552;290.4488;62.6578;0;-2.53E-6;0;Intelsat
0.99687144;0.0002769;13.1273;328.2498;290.1268;243.2524;0;-2.5E-6;0;Intelsat
0.99686967;0.0002753;13.1266;328.2444;289.8503;63.7918;0;-2.47E-6;0;Intelsat
0.99686616;0.0002719;13.125;328.2335;289.2245;64.9829;0;-2.4E-6;0;Intelsat
0.99686279;0.0002693;13.1235;328.2226;288.686;66.0509;0;-2.33E-6;0;Intelsat
0.99685909;0.0002669;13.122;328.2117;287.8982;67.3934;0;-2.27E-6;0;Intelsat
0.99685565;0.000265;13.1205;328.2008;287.3285;68.4779;0;-2.2E-6;0;Intelsat
0.9968523;0.0002641;13.1187;328.1901;286.9128;69.4363;0;-2.13E-6;0;Intelsat
0.99684914;0.0002637;13.1172;328.1794;286.628;70.2559;0;-2.06E-6;0;Intelsat
0.99684621;0.000263;13.1157;328.1686;286.4106;70.9665;0;-1.97E-6;0;Intelsat
0.99684347;0.0002621;13.1142;328.1579;286.2737;71.6684;0;-1.88E-6;0;Intelsat
0.99684081;0.0002613;13.1127;328.1472;286.2887;72.2008;0;-1.77E-6;0;Intelsat
0.99683823;0.0002604;13.1117;328.1362;286.4093;72.6116;0;-1.65E-6;0;Intelsat
0.99683574;0.0002587;13.1102;328.1254;286.2388;73.3077;0;-1.52E-6;0;Intelsat
0.99683367;0.0002567;13.1086;328.1147;286.0893;73.994;0;-1.38E-6;0;Intelsat
0.9968327;0.000256;13.1077;328.1091;285.9445;264.1315;0;-1.3E-6;0;Intelsat
0.99683029;0.0002529;13.1056;328.0937;285.9194;58.1843;0;-1.1E-6;0;Intelsat
0.99683018;0.0002527;13.1055;328.0932;285.8732;75.2623;0;-1.09E-6;0;Intelsat
0.99682867;0.0002501;13.1039;328.0824;285.7186;75.9263;0;-9.5E-7;0;Intelsat
0.99682746;0.0002477;13.1021;328.0723;285.7142;67.1039;0;-8.1E-7;0;Intelsat
0.99682717;0.0002466;13.1013;328.0666;285.6992;256.743;0;-7.4E-7;0;Intelsat
0.99682667;0.0002444;13.1005;328.0613;285.5128;77.1923;0;-6.6E-7;0;Intelsat
0.99682602;0.0002417;13.099;328.0509;285.3709;65.1721;0;-5.3E-7;0;Intelsat
0.99682597;0.0002405;13.0983;328.045;285.3579;258.119;0;-4.6E-7;0;Intelsat
0.99682585;0.0002385;13.0976;328.0399;284.9694;67.8219;0;-3.9E-7;0;Intelsat
0.99682581;0.0002351;13.0959;328.0288;284.4368;79.8501;0;-2.5E-7;0;Intelsat
0.99682593;0.0002332;13.0952;328.0234;284.1856;260.3623;0;-1.9E-7;0;Intelsat
0.99682606;0.0002317;13.0945;328.0187;283.7387;61.2121;0;-1.3E-7;0;Intelsat
0.99682674;0.0002283;13.0928;328.0074;282.9992;82.2956;0;0;0;Intelsat
0.99682728;0.0002262;13.0919;328.0009;282.7647;296.9073;0;7.0E-8;0;Intelsat
0.99682766;0.0002255;13.0913;327.9965;282.365;83.4228;0;1.3E-7;0;Intelsat
0.99682859;0.0002229;13.0901;327.9884;281.7493;357.1166;0;2.1E-7;0;Intelsat
0.99682882;0.0002224;13.0897;327.9858;281.4514;84.875;0;2.4E-7;0;Intelsat
0.99683017;0.0002197;13.0881;327.9751;280.4286;86.419;0;3.5E-7;0;Intelsat
0.9968319;0.0002174;13.0866;327.9647;279.3673;73.4313;0;4.5E-7;0;Intelsat
0.99683396;0.0002154;13.085;327.9535;278.1843;89.7162;0;5.4E-7;0;Intelsat
0.99683633;0.0002139;13.0834;327.9426;277.0127;91.4189;0;6.1E-7;0;Intelsat
0.99683858;0.0002128;13.0818;327.9318;275.7305;93.2073;0;6.7E-7;0;Intelsat
0.99684141;0.0002126;13.0803;327.9211;274.5599;86.8023;0;7.1E-7;0;Intelsat
0.99684427;0.0002125;13.0787;327.91;273.5013;96.5119;0;7.4E-7;0;Intelsat
0.99684733;0.000213;13.0772;327.8995;272.5346;84.5306;0;7.6E-7;0;Intelsat
0.99684743;0.0002129;13.0771;327.899;272.4617;98.0796;0;7.6E-7;0;Intelsat
0.99685045;0.0002136;13.0757;327.8887;271.7049;84.1491;0;7.7E-7;0;Intelsat
0.99685065;0.0002134;13.0756;327.888;271.6607;105.6298;0;7.7E-7;0;Intelsat
0.99685419;0.0002142;13.0741;327.8774;270.8424;100.7704;0;7.7E-7;0;Intelsat
0.99685603;0.0002145;13.0733;327.8718;270.4059;286.924;0;7.7E-7;0;Intelsat
0.99685931;0.0002149;13.0719;327.862;269.9026;256.7838;0;7.7E-7;0;Intelsat
0.99686121;0.0002155;13.0711;327.8565;269.8119;79.9587;0;7.7E-7;0;Intelsat
0.99686513;0.0002159;13.0696;327.8458;269.4268;80.4821;0;7.7E-7;0;Intelsat
0.9968674;0.0002159;13.0687;327.8397;269.0888;284.3804;0;7.7E-7;0;Intelsat
0.99686939;0.000216;13.0679;327.8343;269.0707;104.6667;0;7.7E-7;0;Intelsat
0.99687341;0.0002159;13.0663;327.8235;268.727;105.5725;0;7.6E-7;0;Intelsat
0.99687617;0.0002157;13.0652;327.8165;268.3533;340.6343;0;7.5E-7;0;Intelsat
0.99687761;0.0002155;13.0646;327.8127;268.1741;106.6701;0;7.4E-7;0;Intelsat
0.99687942;0.0002154;13.064;327.808;267.9806;261.4324;0;7.3E-7;0;Intelsat
0.99688187;0.000215;13.063;327.8018;267.7579;107.6228;0;7.2E-7;0;Intelsat
0.99688627;0.0002141;13.0614;327.7909;267.3022;108.631;0;6.8E-7;0;Intelsat
0.99688983;0.0002132;13.06;327.7811;266.8941;70.9641;0;6.4E-7;0;Intelsat
0.99689457;0.0002121;13.0583;327.7698;266.2765;85.0431;0;5.8E-7;0;Intelsat
0.99689679;0.0002116;13.0575;327.7644;266.2096;265.3724;0;5.4E-7;0;Intelsat
0.99689884;0.0002111;13.0567;327.7589;265.5771;86.2784;0;5.1E-7;0;Intelsat
0.99690321;0.0002101;13.0551;327.748;264.9017;87.4953;0;4.3E-7;0;Intelsat
0.99690558;0.0002091;13.0542;327.7419;264.7364;288.9439;0;3.8E-7;0;Intelsat
0.99691177;0.0002083;13.0519;327.7262;263.1057;90.4136;0;2.4E-7;0;Intelsat
0.99691589;0.0002078;13.0503;327.7153;261.921;92.1431;0;1.3E-7;0;Intelsat
0.99691992;0.0002075;13.0486;327.7044;260.8048;93.8381;0;1.0E-8;0;Intelsat
0.99692371;0.0002074;13.0469;327.6936;259.6784;95.4799;0;-1.1E-7;0;Intelsat
0.99692569;0.0002067;13.0461;327.6882;259.2263;276.2136;0;-1.8E-7;0;Intelsat
0.99693097;0.0002084;13.0437;327.6718;257.34;98.9308;0;-3.9E-7;0;Intelsat
0.99693431;0.0002096;13.0421;327.6608;256.1485;100.6983;0;-5.5E-7;0;Intelsat
0.99693745;0.000211;13.0404;327.6496;255.1247;107.3581;0;-7.1E-7;0;Intelsat
0.99694021;0.000213;13.0389;327.6388;254.0114;103.9549;0;-8.9E-7;0;Intelsat
0.9969427;0.0002151;13.0373;327.6277;253.1409;105.4048;0;-1.08E-6;0;Intelsat
0.99694482;0.0002178;13.0357;327.6166;252.2335;106.8698;0;-1.27E-6;0;Intelsat
0.99694579;0.000219;13.035;327.611;251.8533;287.5272;0;-1.37E-6;0;Intelsat
0.99694667;0.0002205;13.0342;327.6055;251.5839;108.0824;0;-1.47E-6;0;Intelsat
0.99694809;0.0002236;13.0326;327.5945;250.9392;109.2875;0;-1.67E-6;0;Intelsat
0.99694871;0.000225;13.0317;327.5884;250.6768;310.8037;0;-1.78E-6;0;Intelsat
0.99694927;0.0002262;13.031;327.5835;250.6364;110.1745;0;-1.87E-6;0;Intelsat
0.99694966;0.0002276;13.0302;327.5774;250.456;309.6609;0;-1.98E-6;0;Intelsat
0.99695045;0.0002309;13.0279;327.5615;250.2115;111.7367;0;-2.23E-6;0;Intelsat
0.99695037;0.0002329;13.0262;327.5505;250.0738;112.4403;0;-2.4E-6;0;Intelsat
0.99694994;0.0002345;13.0246;327.5396;249.9852;113.1035;0;-2.54E-6;0;Intelsat
0.99694909;0.000236;13.023;327.5285;249.8544;113.8045;0;-2.68E-6;0;Intelsat
0.99694795;0.0002365;13.0214;327.5178;249.8906;104.9832;0;-2.8E-6;0;Intelsat
0.99694707;0.0002372;13.0205;327.5117;249.8952;303.3592;0;-2.87E-6;0;Intelsat
0.99694639;0.0002378;13.0198;327.5064;249.6833;115.0865;0;-2.92E-6;0;Intelsat
0.99694441;0.0002387;13.0181;327.4953;249.4531;115.9121;0;-3.03E-6;0;Intelsat
0.99694219;0.0002395;13.0165;327.4842;249.1491;116.7522;0;-3.12E-6;0;Intelsat
0.99694096;0.0002406;13.0157;327.4787;248.9034;296.9657;0;-3.17E-6;0;Intelsat
0.99693672;0.0002421;13.0132;327.462;248.0074;119.0535;0;-3.28E-6;0;Intelsat
0.99693357;0.0002431;13.0115;327.451;247.4737;120.1352;0;-3.35E-6;0;Intelsat
0.99692998;0.0002428;13.0099;327.4399;247.2237;120.9608;0;-3.4E-6;0;Intelsat
0.99692998;0.0002428;13.0099;327.4399;247.2237;120.9608;0;-3.39E-6;0;Intelsat
0.99692816;0.0002426;13.0091;327.4344;247.1975;301.2542;0;-3.42E-6;0;Intelsat
0.99692225;0.0002451;13.0066;327.4178;246.0079;123.279;0;-3.45E-6;0;Intelsat
0.99691787;0.0002468;13.0049;327.4062;245.3245;139.8238;0;-3.46E-6;0;Intelsat
0.99691358;0.0002497;13.0033;327.3957;244.4692;125.9266;0;-3.46E-6;0;Intelsat
0.99690893;0.0002513;13.0017;327.3845;243.8325;127.1087;0;-3.44E-6;0;Intelsat
0.99690412;0.0002537;13.0001;327.3734;243.1356;128.3508;0;-3.41E-6;0;Intelsat
0.99690412;0.0002537;13.0001;327.3734;243.1356;128.3508;0;-3.41E-6;0;Intelsat
0.99689919;0.0002563;12.9985;327.3623;242.5068;129.5157;0;-3.37E-6;0;Intelsat
0.9968943;0.0002596;12.9968;327.3511;241.8401;130.7389;0;-3.32E-6;0;Intelsat
0.99688908;0.0002633;12.9952;327.3399;241.3204;131.8024;0;-3.27E-6;0;Intelsat
0.99688435;0.0002668;12.9938;327.3295;240.9219;107.0355;0;-3.22E-6;0;Intelsat
